<?xml version="1.0" encoding="UTF-8"?>
<gpx
  version="1.1"
  creator="Runkeeper - http://www.runkeeper.com"
  xmlns:xsi="http://www.w3.org/2001/XMLSchema-instance"
  xmlns="http://www.topografix.com/GPX/1/1"
  xsi:schemaLocation="http://www.topografix.com/GPX/1/1 http://www.topografix.com/GPX/1/1/gpx.xsd"
  xmlns:gpxtpx="http://www.garmin.com/xmlschemas/TrackPointExtension/v1">
<trk>
  <name><![CDATA[Running 12/6/25 9:15 am]]></name>
  <time>2025-12-06T07:15:20Z</time>
<trkseg>
<trkpt lat="32.055138000" lon="34.812050000"><ele>35.7</ele><time>2025-12-06T07:15:20Z</time></trkpt>
<trkpt lat="32.055180000" lon="34.811962000"><ele>35.7</ele><time>2025-12-06T07:15:24Z</time></trkpt>
<trkpt lat="32.055239000" lon="34.811893000"><ele>35.8</ele><time>2025-12-06T07:15:27Z</time></trkpt>
<trkpt lat="32.055298000" lon="34.811820000"><ele>35.8</ele><time>2025-12-06T07:15:30Z</time></trkpt>
<trkpt lat="32.055355000" lon="34.811745000"><ele>35.8</ele><time>2025-12-06T07:15:33Z</time></trkpt>
<trkpt lat="32.055411000" lon="34.811665000"><ele>35.9</ele><time>2025-12-06T07:15:36Z</time></trkpt>
<trkpt lat="32.055470000" lon="34.811570000"><ele>36.0</ele><time>2025-12-06T07:15:40Z</time></trkpt>
<trkpt lat="32.055534000" lon="34.811478000"><ele>36.1</ele><time>2025-12-06T07:15:44Z</time></trkpt>
<trkpt lat="32.055588000" lon="34.811400000"><ele>36.2</ele><time>2025-12-06T07:15:47Z</time></trkpt>
<trkpt lat="32.055645000" lon="34.811302000"><ele>36.3</ele><time>2025-12-06T07:15:51Z</time></trkpt>
<trkpt lat="32.055701000" lon="34.811210000"><ele>36.5</ele><time>2025-12-06T07:15:55Z</time></trkpt>
<trkpt lat="32.055743000" lon="34.811130000"><ele>36.6</ele><time>2025-12-06T07:15:58Z</time></trkpt>
<trkpt lat="32.055729000" lon="34.811016000"><ele>36.7</ele><time>2025-12-06T07:16:02Z</time></trkpt>
<trkpt lat="32.055650000" lon="34.810955000"><ele>36.8</ele><time>2025-12-06T07:16:05Z</time></trkpt>
<trkpt lat="32.055565000" lon="34.810900000"><ele>36.9</ele><time>2025-12-06T07:16:08Z</time></trkpt>
<trkpt lat="32.055484000" lon="34.810837000"><ele>37.0</ele><time>2025-12-06T07:16:12Z</time></trkpt>
<trkpt lat="32.055410000" lon="34.810802000"><ele>37.0</ele><time>2025-12-06T07:16:15Z</time></trkpt>
<trkpt lat="32.055325000" lon="34.810760000"><ele>37.0</ele><time>2025-12-06T07:16:18Z</time></trkpt>
<trkpt lat="32.055250000" lon="34.810715000"><ele>37.0</ele><time>2025-12-06T07:16:21Z</time></trkpt>
<trkpt lat="32.055157000" lon="34.810650000"><ele>37.0</ele><time>2025-12-06T07:16:25Z</time></trkpt>
<trkpt lat="32.055073000" lon="34.810596000"><ele>37.0</ele><time>2025-12-06T07:16:29Z</time></trkpt>
<trkpt lat="32.054969000" lon="34.810577000"><ele>37.0</ele><time>2025-12-06T07:16:33Z</time></trkpt>
<trkpt lat="32.054886000" lon="34.810646000"><ele>36.9</ele><time>2025-12-06T07:16:37Z</time></trkpt>
<trkpt lat="32.054806000" lon="34.810720000"><ele>36.8</ele><time>2025-12-06T07:16:41Z</time></trkpt>
<trkpt lat="32.054750000" lon="34.810800000"><ele>36.7</ele><time>2025-12-06T07:16:44Z</time></trkpt>
<trkpt lat="32.054699000" lon="34.810886000"><ele>36.6</ele><time>2025-12-06T07:16:47Z</time></trkpt>
<trkpt lat="32.054634000" lon="34.810960000"><ele>36.5</ele><time>2025-12-06T07:16:50Z</time></trkpt>
<trkpt lat="32.054577000" lon="34.811030000"><ele>36.4</ele><time>2025-12-06T07:16:53Z</time></trkpt>
<trkpt lat="32.054499000" lon="34.811110000"><ele>36.2</ele><time>2025-12-06T07:16:57Z</time></trkpt>
<trkpt lat="32.054440000" lon="34.811172000"><ele>36.0</ele><time>2025-12-06T07:17:00Z</time></trkpt>
<trkpt lat="32.054389000" lon="34.811256000"><ele>35.8</ele><time>2025-12-06T07:17:03Z</time></trkpt>
<trkpt lat="32.054313000" lon="34.811348000"><ele>35.6</ele><time>2025-12-06T07:17:07Z</time></trkpt>
<trkpt lat="32.054240000" lon="34.811430000"><ele>35.4</ele><time>2025-12-06T07:17:11Z</time></trkpt>
<trkpt lat="32.054180000" lon="34.811497000"><ele>35.2</ele><time>2025-12-06T07:17:14Z</time></trkpt>
<trkpt lat="32.054119000" lon="34.811570000"><ele>35.0</ele><time>2025-12-06T07:17:17Z</time></trkpt>
<trkpt lat="32.054046000" lon="34.811650000"><ele>34.8</ele><time>2025-12-06T07:17:21Z</time></trkpt>
<trkpt lat="32.053986000" lon="34.811714000"><ele>34.6</ele><time>2025-12-06T07:17:24Z</time></trkpt>
<trkpt lat="32.053932000" lon="34.811790000"><ele>34.5</ele><time>2025-12-06T07:17:27Z</time></trkpt>
<trkpt lat="32.053866000" lon="34.811850000"><ele>34.5</ele><time>2025-12-06T07:17:30Z</time></trkpt>
<trkpt lat="32.053780000" lon="34.811930000"><ele>34.6</ele><time>2025-12-06T07:17:34Z</time></trkpt>
<trkpt lat="32.053710000" lon="34.811993000"><ele>34.7</ele><time>2025-12-06T07:17:37Z</time></trkpt>
<trkpt lat="32.053646000" lon="34.812060000"><ele>34.7</ele><time>2025-12-06T07:17:40Z</time></trkpt>
<trkpt lat="32.053579000" lon="34.812122000"><ele>34.7</ele><time>2025-12-06T07:17:43Z</time></trkpt>
<trkpt lat="32.053530000" lon="34.812200000"><ele>34.8</ele><time>2025-12-06T07:17:46Z</time></trkpt>
<trkpt lat="32.053448000" lon="34.812283000"><ele>34.8</ele><time>2025-12-06T07:17:50Z</time></trkpt>
<trkpt lat="32.053364000" lon="34.812363000"><ele>34.8</ele><time>2025-12-06T07:17:54Z</time></trkpt>
<trkpt lat="32.053283000" lon="34.812428000"><ele>34.8</ele><time>2025-12-06T07:17:58Z</time></trkpt>
<trkpt lat="32.053207000" lon="34.812508000"><ele>34.8</ele><time>2025-12-06T07:18:02Z</time></trkpt>
<trkpt lat="32.053123000" lon="34.812580000"><ele>34.7</ele><time>2025-12-06T07:18:06Z</time></trkpt>
<trkpt lat="32.053036000" lon="34.812640000"><ele>34.7</ele><time>2025-12-06T07:18:10Z</time></trkpt>
<trkpt lat="32.052963000" lon="34.812700000"><ele>34.6</ele><time>2025-12-06T07:18:13Z</time></trkpt>
<trkpt lat="32.052875000" lon="34.812763000"><ele>34.5</ele><time>2025-12-06T07:18:16Z</time></trkpt>
<trkpt lat="32.052799000" lon="34.812817000"><ele>34.5</ele><time>2025-12-06T07:18:19Z</time></trkpt>
<trkpt lat="32.052723000" lon="34.812878000"><ele>34.5</ele><time>2025-12-06T07:18:22Z</time></trkpt>
<trkpt lat="32.052630000" lon="34.812935000"><ele>34.4</ele><time>2025-12-06T07:18:25Z</time></trkpt>
<trkpt lat="32.052543000" lon="34.812996000"><ele>34.5</ele><time>2025-12-06T07:18:28Z</time></trkpt>
<trkpt lat="32.052450000" lon="34.813050000"><ele>34.5</ele><time>2025-12-06T07:18:31Z</time></trkpt>
<trkpt lat="32.052370000" lon="34.813107000"><ele>34.7</ele><time>2025-12-06T07:18:34Z</time></trkpt>
<trkpt lat="32.052284000" lon="34.813145000"><ele>35.0</ele><time>2025-12-06T07:18:37Z</time></trkpt>
<trkpt lat="32.052200000" lon="34.813198000"><ele>35.4</ele><time>2025-12-06T07:18:40Z</time></trkpt>
<trkpt lat="32.052115000" lon="34.813248000"><ele>35.7</ele><time>2025-12-06T07:18:43Z</time></trkpt>
<trkpt lat="32.052031000" lon="34.813300000"><ele>36.1</ele><time>2025-12-06T07:18:46Z</time></trkpt>
<trkpt lat="32.051940000" lon="34.813343000"><ele>36.5</ele><time>2025-12-06T07:18:49Z</time></trkpt>
<trkpt lat="32.051857000" lon="34.813423000"><ele>37.0</ele><time>2025-12-06T07:18:52Z</time></trkpt>
<trkpt lat="32.051777000" lon="34.813477000"><ele>37.5</ele><time>2025-12-06T07:18:55Z</time></trkpt>
<trkpt lat="32.051690000" lon="34.813534000"><ele>38.1</ele><time>2025-12-06T07:18:58Z</time></trkpt>
<trkpt lat="32.051605000" lon="34.813600000"><ele>38.5</ele><time>2025-12-06T07:19:01Z</time></trkpt>
<trkpt lat="32.051519000" lon="34.813656000"><ele>38.8</ele><time>2025-12-06T07:19:04Z</time></trkpt>
<trkpt lat="32.051430000" lon="34.813705000"><ele>38.9</ele><time>2025-12-06T07:19:07Z</time></trkpt>
<trkpt lat="32.051350000" lon="34.813747000"><ele>38.8</ele><time>2025-12-06T07:19:10Z</time></trkpt>
<trkpt lat="32.051257000" lon="34.813780000"><ele>38.5</ele><time>2025-12-06T07:19:13Z</time></trkpt>
<trkpt lat="32.051170000" lon="34.813816000"><ele>38.1</ele><time>2025-12-06T07:19:16Z</time></trkpt>
<trkpt lat="32.051074000" lon="34.813854000"><ele>37.5</ele><time>2025-12-06T07:19:19Z</time></trkpt>
<trkpt lat="32.050983000" lon="34.813890000"><ele>36.6</ele><time>2025-12-06T07:19:22Z</time></trkpt>
<trkpt lat="32.050896000" lon="34.813908000"><ele>35.8</ele><time>2025-12-06T07:19:25Z</time></trkpt>
<trkpt lat="32.050808000" lon="34.813934000"><ele>35.0</ele><time>2025-12-06T07:19:28Z</time></trkpt>
<trkpt lat="32.050716000" lon="34.813953000"><ele>34.2</ele><time>2025-12-06T07:19:31Z</time></trkpt>
<trkpt lat="32.050624000" lon="34.813972000"><ele>33.5</ele><time>2025-12-06T07:19:34Z</time></trkpt>
<trkpt lat="32.050533000" lon="34.813976000"><ele>33.0</ele><time>2025-12-06T07:19:37Z</time></trkpt>
<trkpt lat="32.050446000" lon="34.813984000"><ele>32.6</ele><time>2025-12-06T07:19:40Z</time></trkpt>
<trkpt lat="32.050358000" lon="34.814000000"><ele>32.4</ele><time>2025-12-06T07:19:43Z</time></trkpt>
<trkpt lat="32.050269000" lon="34.814007000"><ele>32.2</ele><time>2025-12-06T07:19:46Z</time></trkpt>
<trkpt lat="32.050175000" lon="34.814020000"><ele>32.2</ele><time>2025-12-06T07:19:49Z</time></trkpt>
<trkpt lat="32.050080000" lon="34.814022000"><ele>32.5</ele><time>2025-12-06T07:19:52Z</time></trkpt>
<trkpt lat="32.049984000" lon="34.814020000"><ele>32.7</ele><time>2025-12-06T07:19:55Z</time></trkpt>
<trkpt lat="32.049892000" lon="34.814026000"><ele>33.0</ele><time>2025-12-06T07:19:58Z</time></trkpt>
<trkpt lat="32.049810000" lon="34.814040000"><ele>33.2</ele><time>2025-12-06T07:20:01Z</time></trkpt>
<trkpt lat="32.049729000" lon="34.814080000"><ele>33.3</ele><time>2025-12-06T07:20:04Z</time></trkpt>
<trkpt lat="32.049652000" lon="34.814130000"><ele>33.3</ele><time>2025-12-06T07:20:07Z</time></trkpt>
<trkpt lat="32.049557000" lon="34.814120000"><ele>33.2</ele><time>2025-12-06T07:20:11Z</time></trkpt>
<trkpt lat="32.049480000" lon="34.814080000"><ele>33.0</ele><time>2025-12-06T07:20:15Z</time></trkpt>
<trkpt lat="32.049397000" lon="34.814045000"><ele>32.8</ele><time>2025-12-06T07:20:19Z</time></trkpt>
<trkpt lat="32.049297000" lon="34.814045000"><ele>32.6</ele><time>2025-12-06T07:20:23Z</time></trkpt>
<trkpt lat="32.049194000" lon="34.814050000"><ele>32.4</ele><time>2025-12-06T07:20:27Z</time></trkpt>
<trkpt lat="32.049100000" lon="34.814060000"><ele>32.0</ele><time>2025-12-06T07:20:31Z</time></trkpt>
<trkpt lat="32.049003000" lon="34.814064000"><ele>31.6</ele><time>2025-12-06T07:20:35Z</time></trkpt>
<trkpt lat="32.048912000" lon="34.814068000"><ele>31.3</ele><time>2025-12-06T07:20:39Z</time></trkpt>
<trkpt lat="32.048817000" lon="34.814070000"><ele>31.0</ele><time>2025-12-06T07:20:43Z</time></trkpt>
<trkpt lat="32.048720000" lon="34.814075000"><ele>30.8</ele><time>2025-12-06T07:20:47Z</time></trkpt>
<trkpt lat="32.048626000" lon="34.814083000"><ele>30.6</ele><time>2025-12-06T07:20:51Z</time></trkpt>
<trkpt lat="32.048533000" lon="34.814087000"><ele>30.5</ele><time>2025-12-06T07:20:55Z</time></trkpt>
<trkpt lat="32.048440000" lon="34.814083000"><ele>30.4</ele><time>2025-12-06T07:20:59Z</time></trkpt>
<trkpt lat="32.048340000" lon="34.814080000"><ele>30.4</ele><time>2025-12-06T07:21:03Z</time></trkpt>
<trkpt lat="32.048243000" lon="34.814080000"><ele>30.4</ele><time>2025-12-06T07:21:07Z</time></trkpt>
<trkpt lat="32.048153000" lon="34.814080000"><ele>30.4</ele><time>2025-12-06T07:21:11Z</time></trkpt>
<trkpt lat="32.048057000" lon="34.814080000"><ele>30.4</ele><time>2025-12-06T07:21:15Z</time></trkpt>
<trkpt lat="32.047960000" lon="34.814075000"><ele>30.5</ele><time>2025-12-06T07:21:19Z</time></trkpt>
<trkpt lat="32.047849000" lon="34.814070000"><ele>30.5</ele><time>2025-12-06T07:21:23Z</time></trkpt>
<trkpt lat="32.047759000" lon="34.814068000"><ele>30.5</ele><time>2025-12-06T07:21:27Z</time></trkpt>
<trkpt lat="32.047660000" lon="34.814068000"><ele>30.5</ele><time>2025-12-06T07:21:31Z</time></trkpt>
<trkpt lat="32.047573000" lon="34.814064000"><ele>30.5</ele><time>2025-12-06T07:21:35Z</time></trkpt>
<trkpt lat="32.047485000" lon="34.814060000"><ele>30.5</ele><time>2025-12-06T07:21:39Z</time></trkpt>
<trkpt lat="32.047393000" lon="34.814045000"><ele>30.4</ele><time>2025-12-06T07:21:43Z</time></trkpt>
<trkpt lat="32.047295000" lon="34.814030000"><ele>30.1</ele><time>2025-12-06T07:21:47Z</time></trkpt>
<trkpt lat="32.047199000" lon="34.814022000"><ele>29.8</ele><time>2025-12-06T07:21:51Z</time></trkpt>
<trkpt lat="32.047103000" lon="34.814010000"><ele>29.5</ele><time>2025-12-06T07:21:55Z</time></trkpt>
<trkpt lat="32.047010000" lon="34.813988000"><ele>29.0</ele><time>2025-12-06T07:21:59Z</time></trkpt>
<trkpt lat="32.046909000" lon="34.813970000"><ele>28.5</ele><time>2025-12-06T07:22:03Z</time></trkpt>
<trkpt lat="32.046825000" lon="34.813953000"><ele>28.0</ele><time>2025-12-06T07:22:07Z</time></trkpt>
<trkpt lat="32.046745000" lon="34.813930000"><ele>27.5</ele><time>2025-12-06T07:22:11Z</time></trkpt>
<trkpt lat="32.046660000" lon="34.813904000"><ele>27.1</ele><time>2025-12-06T07:22:15Z</time></trkpt>
<trkpt lat="32.046577000" lon="34.813877000"><ele>26.7</ele><time>2025-12-06T07:22:19Z</time></trkpt>
<trkpt lat="32.046486000" lon="34.813854000"><ele>26.5</ele><time>2025-12-06T07:22:23Z</time></trkpt>
<trkpt lat="32.046390000" lon="34.813896000"><ele>26.2</ele><time>2025-12-06T07:22:27Z</time></trkpt>
<trkpt lat="32.046360000" lon="34.814010000"><ele>26.0</ele><time>2025-12-06T07:22:30Z</time></trkpt>
<trkpt lat="32.046332000" lon="34.814130000"><ele>25.7</ele><time>2025-12-06T07:22:34Z</time></trkpt>
<trkpt lat="32.046303000" lon="34.814243000"><ele>25.5</ele><time>2025-12-06T07:22:38Z</time></trkpt>
<trkpt lat="32.046276000" lon="34.814358000"><ele>25.5</ele><time>2025-12-06T07:22:42Z</time></trkpt>
<trkpt lat="32.046238000" lon="34.814453000"><ele>25.4</ele><time>2025-12-06T07:22:45Z</time></trkpt>
<trkpt lat="32.046191000" lon="34.814545000"><ele>25.4</ele><time>2025-12-06T07:22:48Z</time></trkpt>
<trkpt lat="32.046158000" lon="34.814648000"><ele>25.5</ele><time>2025-12-06T07:22:51Z</time></trkpt>
<trkpt lat="32.046143000" lon="34.814754000"><ele>25.5</ele><time>2025-12-06T07:22:54Z</time></trkpt>
<trkpt lat="32.046120000" lon="34.814857000"><ele>25.5</ele><time>2025-12-06T07:22:57Z</time></trkpt>
<trkpt lat="32.046100000" lon="34.814970000"><ele>25.5</ele><time>2025-12-06T07:23:00Z</time></trkpt>
<trkpt lat="32.046080000" lon="34.815067000"><ele>25.6</ele><time>2025-12-06T07:23:03Z</time></trkpt>
<trkpt lat="32.046062000" lon="34.815166000"><ele>25.7</ele><time>2025-12-06T07:23:06Z</time></trkpt>
<trkpt lat="32.046055000" lon="34.815285000"><ele>26.0</ele><time>2025-12-06T07:23:09Z</time></trkpt>
<trkpt lat="32.046066000" lon="34.815390000"><ele>26.3</ele><time>2025-12-06T07:23:12Z</time></trkpt>
<trkpt lat="32.046097000" lon="34.815487000"><ele>26.5</ele><time>2025-12-06T07:23:15Z</time></trkpt>
<trkpt lat="32.046185000" lon="34.815495000"><ele>26.8</ele><time>2025-12-06T07:23:18Z</time></trkpt>
<trkpt lat="32.046272000" lon="34.815506000"><ele>27.1</ele><time>2025-12-06T07:23:21Z</time></trkpt>
<trkpt lat="32.046360000" lon="34.815520000"><ele>27.2</ele><time>2025-12-06T07:23:24Z</time></trkpt>
<trkpt lat="32.046450000" lon="34.815530000"><ele>27.3</ele><time>2025-12-06T07:23:27Z</time></trkpt>
<trkpt lat="32.046540000" lon="34.815563000"><ele>27.4</ele><time>2025-12-06T07:23:30Z</time></trkpt>
<trkpt lat="32.046630000" lon="34.815586000"><ele>27.5</ele><time>2025-12-06T07:23:33Z</time></trkpt>
<trkpt lat="32.046726000" lon="34.815613000"><ele>27.5</ele><time>2025-12-06T07:23:36Z</time></trkpt>
<trkpt lat="32.046805000" lon="34.815640000"><ele>27.5</ele><time>2025-12-06T07:23:39Z</time></trkpt>
<trkpt lat="32.046886000" lon="34.815666000"><ele>27.4</ele><time>2025-12-06T07:23:42Z</time></trkpt>
<trkpt lat="32.046967000" lon="34.815693000"><ele>27.2</ele><time>2025-12-06T07:23:45Z</time></trkpt>
<trkpt lat="32.047054000" lon="34.815720000"><ele>27.1</ele><time>2025-12-06T07:23:48Z</time></trkpt>
<trkpt lat="32.047145000" lon="34.815777000"><ele>27.1</ele><time>2025-12-06T07:23:52Z</time></trkpt>
<trkpt lat="32.047207000" lon="34.815870000"><ele>27.2</ele><time>2025-12-06T07:23:55Z</time></trkpt>
<trkpt lat="32.047252000" lon="34.815956000"><ele>27.4</ele><time>2025-12-06T07:23:58Z</time></trkpt>
<trkpt lat="32.047260000" lon="34.816055000"><ele>27.6</ele><time>2025-12-06T07:24:01Z</time></trkpt>
<trkpt lat="32.047275000" lon="34.816160000"><ele>27.9</ele><time>2025-12-06T07:24:04Z</time></trkpt>
<trkpt lat="32.047300000" lon="34.816277000"><ele>28.2</ele><time>2025-12-06T07:24:08Z</time></trkpt>
<trkpt lat="32.047317000" lon="34.816380000"><ele>28.5</ele><time>2025-12-06T07:24:12Z</time></trkpt>
<trkpt lat="32.047337000" lon="34.816498000"><ele>28.7</ele><time>2025-12-06T07:24:16Z</time></trkpt>
<trkpt lat="32.047340000" lon="34.816600000"><ele>29.0</ele><time>2025-12-06T07:24:19Z</time></trkpt>
<trkpt lat="32.047330000" lon="34.816710000"><ele>29.5</ele><time>2025-12-06T07:24:23Z</time></trkpt>
<trkpt lat="32.047306000" lon="34.816814000"><ele>30.0</ele><time>2025-12-06T07:24:27Z</time></trkpt>
<trkpt lat="32.047302000" lon="34.816956000"><ele>30.5</ele><time>2025-12-06T07:24:31Z</time></trkpt>
<trkpt lat="32.047300000" lon="34.817062000"><ele>31.2</ele><time>2025-12-06T07:24:34Z</time></trkpt>
<trkpt lat="32.047289000" lon="34.817190000"><ele>31.9</ele><time>2025-12-06T07:24:37Z</time></trkpt>
<trkpt lat="32.047264000" lon="34.817307000"><ele>32.6</ele><time>2025-12-06T07:24:41Z</time></trkpt>
<trkpt lat="32.047260000" lon="34.817420000"><ele>33.4</ele><time>2025-12-06T07:24:45Z</time></trkpt>
<trkpt lat="32.047255000" lon="34.817535000"><ele>34.1</ele><time>2025-12-06T07:24:49Z</time></trkpt>
<trkpt lat="32.047220000" lon="34.817642000"><ele>34.7</ele><time>2025-12-06T07:24:54Z</time></trkpt>
<trkpt lat="32.047195000" lon="34.817734000"><ele>35.4</ele><time>2025-12-06T07:24:56Z</time></trkpt>
<trkpt lat="32.047170000" lon="34.817840000"><ele>35.9</ele><time>2025-12-06T07:25:00Z</time></trkpt>
<trkpt lat="32.047150000" lon="34.817950000"><ele>36.3</ele><time>2025-12-06T07:25:04Z</time></trkpt>
<trkpt lat="32.047134000" lon="34.818070000"><ele>36.5</ele><time>2025-12-06T07:25:08Z</time></trkpt>
<trkpt lat="32.047127000" lon="34.818165000"><ele>36.5</ele><time>2025-12-06T07:25:12Z</time></trkpt>
<trkpt lat="32.047114000" lon="34.818275000"><ele>36.3</ele><time>2025-12-06T07:25:18Z</time></trkpt>
<trkpt lat="32.047089000" lon="34.818380000"><ele>35.9</ele><time>2025-12-06T07:25:23Z</time></trkpt>
<trkpt lat="32.047066000" lon="34.818500000"><ele>35.5</ele><time>2025-12-06T07:25:28Z</time></trkpt>
<trkpt lat="32.047043000" lon="34.818607000"><ele>34.9</ele><time>2025-12-06T07:25:31Z</time></trkpt>
<trkpt lat="32.047020000" lon="34.818703000"><ele>34.3</ele><time>2025-12-06T07:25:35Z</time></trkpt>
<trkpt lat="32.046996000" lon="34.818806000"><ele>33.5</ele><time>2025-12-06T07:25:39Z</time></trkpt>
<trkpt lat="32.046974000" lon="34.818928000"><ele>32.8</ele><time>2025-12-06T07:25:43Z</time></trkpt>
<trkpt lat="32.046954000" lon="34.819050000"><ele>32.2</ele><time>2025-12-06T07:25:47Z</time></trkpt>
<trkpt lat="32.046932000" lon="34.819164000"><ele>31.6</ele><time>2025-12-06T07:25:51Z</time></trkpt>
<trkpt lat="32.046913000" lon="34.819275000"><ele>31.2</ele><time>2025-12-06T07:25:55Z</time></trkpt>
<trkpt lat="32.046889000" lon="34.819386000"><ele>31.0</ele><time>2025-12-06T07:25:59Z</time></trkpt>
<trkpt lat="32.046870000" lon="34.819508000"><ele>30.9</ele><time>2025-12-06T07:26:03Z</time></trkpt>
<trkpt lat="32.046850000" lon="34.819622000"><ele>31.0</ele><time>2025-12-06T07:26:07Z</time></trkpt>
<trkpt lat="32.046836000" lon="34.819730000"><ele>31.2</ele><time>2025-12-06T07:26:11Z</time></trkpt>
<trkpt lat="32.046819000" lon="34.819840000"><ele>31.5</ele><time>2025-12-06T07:26:15Z</time></trkpt>
<trkpt lat="32.046830000" lon="34.819950000"><ele>32.0</ele><time>2025-12-06T07:26:19Z</time></trkpt>
<trkpt lat="32.046802000" lon="34.820060000"><ele>32.5</ele><time>2025-12-06T07:26:24Z</time></trkpt>
<trkpt lat="32.046780000" lon="34.820164000"><ele>33.1</ele><time>2025-12-06T07:26:28Z</time></trkpt>
<trkpt lat="32.046771000" lon="34.820280000"><ele>33.5</ele><time>2025-12-06T07:26:32Z</time></trkpt>
<trkpt lat="32.046753000" lon="34.820400000"><ele>33.9</ele><time>2025-12-06T07:26:36Z</time></trkpt>
<trkpt lat="32.046734000" lon="34.820520000"><ele>34.2</ele><time>2025-12-06T07:26:40Z</time></trkpt>
<trkpt lat="32.046722000" lon="34.820644000"><ele>34.1</ele><time>2025-12-06T07:26:44Z</time></trkpt>
<trkpt lat="32.046726000" lon="34.820755000"><ele>33.8</ele><time>2025-12-06T07:26:48Z</time></trkpt>
<trkpt lat="32.046729000" lon="34.820870000"><ele>33.4</ele><time>2025-12-06T07:26:54Z</time></trkpt>
<trkpt lat="32.046722000" lon="34.820965000"><ele>32.7</ele><time>2025-12-06T07:26:58Z</time></trkpt>
<trkpt lat="32.046709000" lon="34.821075000"><ele>31.9</ele><time>2025-12-06T07:27:02Z</time></trkpt>
<trkpt lat="32.046700000" lon="34.821190000"><ele>31.1</ele><time>2025-12-06T07:27:06Z</time></trkpt>
<trkpt lat="32.046689000" lon="34.821300000"><ele>30.4</ele><time>2025-12-06T07:27:10Z</time></trkpt>
<trkpt lat="32.046680000" lon="34.821415000"><ele>29.6</ele><time>2025-12-06T07:27:14Z</time></trkpt>
<trkpt lat="32.046660000" lon="34.821537000"><ele>29.0</ele><time>2025-12-06T07:27:18Z</time></trkpt>
<trkpt lat="32.046646000" lon="34.821655000"><ele>28.5</ele><time>2025-12-06T07:27:22Z</time></trkpt>
<trkpt lat="32.046630000" lon="34.821747000"><ele>27.9</ele><time>2025-12-06T07:27:25Z</time></trkpt>
<trkpt lat="32.046610000" lon="34.821854000"><ele>27.5</ele><time>2025-12-06T07:27:28Z</time></trkpt>
<trkpt lat="32.046593000" lon="34.821964000"><ele>27.4</ele><time>2025-12-06T07:27:31Z</time></trkpt>
<trkpt lat="32.046577000" lon="34.822070000"><ele>27.3</ele><time>2025-12-06T07:27:34Z</time></trkpt>
<trkpt lat="32.046562000" lon="34.822178000"><ele>27.3</ele><time>2025-12-06T07:27:37Z</time></trkpt>
<trkpt lat="32.046560000" lon="34.822277000"><ele>27.4</ele><time>2025-12-06T07:27:40Z</time></trkpt>
<trkpt lat="32.046529000" lon="34.822370000"><ele>27.5</ele><time>2025-12-06T07:27:43Z</time></trkpt>
<trkpt lat="32.046497000" lon="34.822464000"><ele>27.7</ele><time>2025-12-06T07:27:46Z</time></trkpt>
<trkpt lat="32.046460000" lon="34.822556000"><ele>28.0</ele><time>2025-12-06T07:27:49Z</time></trkpt>
<trkpt lat="32.046430000" lon="34.822650000"><ele>28.3</ele><time>2025-12-06T07:27:52Z</time></trkpt>
<trkpt lat="32.046394000" lon="34.822750000"><ele>28.6</ele><time>2025-12-06T07:27:55Z</time></trkpt>
<trkpt lat="32.046370000" lon="34.822853000"><ele>29.0</ele><time>2025-12-06T07:27:58Z</time></trkpt>
<trkpt lat="32.046374000" lon="34.822964000"><ele>29.4</ele><time>2025-12-06T07:28:01Z</time></trkpt>
<trkpt lat="32.046402000" lon="34.823063000"><ele>29.6</ele><time>2025-12-06T07:28:04Z</time></trkpt>
<trkpt lat="32.046436000" lon="34.823150000"><ele>29.9</ele><time>2025-12-06T07:28:07Z</time></trkpt>
<trkpt lat="32.046481000" lon="34.823240000"><ele>30.2</ele><time>2025-12-06T07:28:10Z</time></trkpt>
<trkpt lat="32.046515000" lon="34.823326000"><ele>30.4</ele><time>2025-12-06T07:28:13Z</time></trkpt>
<trkpt lat="32.046554000" lon="34.823420000"><ele>30.5</ele><time>2025-12-06T07:28:16Z</time></trkpt>
<trkpt lat="32.046604000" lon="34.823505000"><ele>30.5</ele><time>2025-12-06T07:28:19Z</time></trkpt>
<trkpt lat="32.046653000" lon="34.823600000"><ele>30.4</ele><time>2025-12-06T07:28:22Z</time></trkpt>
<trkpt lat="32.046700000" lon="34.823680000"><ele>30.3</ele><time>2025-12-06T07:28:25Z</time></trkpt>
<trkpt lat="32.046750000" lon="34.823765000"><ele>30.1</ele><time>2025-12-06T07:28:28Z</time></trkpt>
<trkpt lat="32.046805000" lon="34.823840000"><ele>29.9</ele><time>2025-12-06T07:28:31Z</time></trkpt>
<trkpt lat="32.046875000" lon="34.823933000"><ele>29.8</ele><time>2025-12-06T07:28:35Z</time></trkpt>
<trkpt lat="32.046954000" lon="34.824013000"><ele>29.7</ele><time>2025-12-06T07:28:39Z</time></trkpt>
<trkpt lat="32.047030000" lon="34.824097000"><ele>29.6</ele><time>2025-12-06T07:28:43Z</time></trkpt>
<trkpt lat="32.047110000" lon="34.824150000"><ele>29.5</ele><time>2025-12-06T07:28:46Z</time></trkpt>
<trkpt lat="32.047199000" lon="34.824210000"><ele>29.4</ele><time>2025-12-06T07:28:50Z</time></trkpt>
<trkpt lat="32.047280000" lon="34.824300000"><ele>29.3</ele><time>2025-12-06T07:28:54Z</time></trkpt>
<trkpt lat="32.047325000" lon="34.824383000"><ele>29.3</ele><time>2025-12-06T07:28:57Z</time></trkpt>
<trkpt lat="32.047344000" lon="34.824500000"><ele>29.3</ele><time>2025-12-06T07:29:01Z</time></trkpt>
<trkpt lat="32.047375000" lon="34.824600000"><ele>29.3</ele><time>2025-12-06T07:29:04Z</time></trkpt>
<trkpt lat="32.047400000" lon="34.824703000"><ele>29.4</ele><time>2025-12-06T07:29:07Z</time></trkpt>
<trkpt lat="32.047430000" lon="34.824810000"><ele>29.5</ele><time>2025-12-06T07:29:10Z</time></trkpt>
<trkpt lat="32.047447000" lon="34.824913000"><ele>29.7</ele><time>2025-12-06T07:29:13Z</time></trkpt>
<trkpt lat="32.047485000" lon="34.825010000"><ele>29.9</ele><time>2025-12-06T07:29:16Z</time></trkpt>
<trkpt lat="32.047530000" lon="34.825092000"><ele>30.1</ele><time>2025-12-06T07:29:19Z</time></trkpt>
<trkpt lat="32.047590000" lon="34.825160000"><ele>30.4</ele><time>2025-12-06T07:29:22Z</time></trkpt>
<trkpt lat="32.047646000" lon="34.825233000"><ele>30.6</ele><time>2025-12-06T07:29:25Z</time></trkpt>
<trkpt lat="32.047710000" lon="34.825294000"><ele>30.9</ele><time>2025-12-06T07:29:28Z</time></trkpt>
<trkpt lat="32.047783000" lon="34.825370000"><ele>31.1</ele><time>2025-12-06T07:29:32Z</time></trkpt>
<trkpt lat="32.047860000" lon="34.825440000"><ele>31.3</ele><time>2025-12-06T07:29:36Z</time></trkpt>
<trkpt lat="32.047928000" lon="34.825497000"><ele>31.4</ele><time>2025-12-06T07:29:42Z</time></trkpt>
<trkpt lat="32.048004000" lon="34.825560000"><ele>31.4</ele><time>2025-12-06T07:29:48Z</time></trkpt>
<trkpt lat="32.048080000" lon="34.825630000"><ele>31.3</ele><time>2025-12-06T07:29:54Z</time></trkpt>
<trkpt lat="32.048150000" lon="34.825690000"><ele>31.1</ele><time>2025-12-06T07:30:00Z</time></trkpt>
<trkpt lat="32.048214000" lon="34.825764000"><ele>30.9</ele><time>2025-12-06T07:30:04Z</time></trkpt>
<trkpt lat="32.048280000" lon="34.825848000"><ele>30.7</ele><time>2025-12-06T07:30:08Z</time></trkpt>
<trkpt lat="32.048355000" lon="34.825928000"><ele>30.5</ele><time>2025-12-06T07:30:12Z</time></trkpt>
<trkpt lat="32.048416000" lon="34.826020000"><ele>30.4</ele><time>2025-12-06T07:30:16Z</time></trkpt>
<trkpt lat="32.048479000" lon="34.826100000"><ele>30.2</ele><time>2025-12-06T07:30:20Z</time></trkpt>
<trkpt lat="32.048546000" lon="34.826180000"><ele>30.1</ele><time>2025-12-06T07:30:24Z</time></trkpt>
<trkpt lat="32.048609000" lon="34.826280000"><ele>30.0</ele><time>2025-12-06T07:30:28Z</time></trkpt>
<trkpt lat="32.048682000" lon="34.826360000"><ele>30.1</ele><time>2025-12-06T07:30:32Z</time></trkpt>
<trkpt lat="32.048730000" lon="34.826443000"><ele>30.2</ele><time>2025-12-06T07:30:35Z</time></trkpt>
<trkpt lat="32.048782000" lon="34.826538000"><ele>30.3</ele><time>2025-12-06T07:30:39Z</time></trkpt>
<trkpt lat="32.048836000" lon="34.826640000"><ele>30.5</ele><time>2025-12-06T07:30:43Z</time></trkpt>
<trkpt lat="32.048878000" lon="34.826756000"><ele>30.6</ele><time>2025-12-06T07:30:47Z</time></trkpt>
<trkpt lat="32.048930000" lon="34.826850000"><ele>30.9</ele><time>2025-12-06T07:30:51Z</time></trkpt>
<trkpt lat="32.048980000" lon="34.826946000"><ele>31.2</ele><time>2025-12-06T07:30:55Z</time></trkpt>
<trkpt lat="32.049034000" lon="34.827045000"><ele>31.5</ele><time>2025-12-06T07:30:59Z</time></trkpt>
<trkpt lat="32.049084000" lon="34.827145000"><ele>31.9</ele><time>2025-12-06T07:31:03Z</time></trkpt>
<trkpt lat="32.049129000" lon="34.827240000"><ele>32.3</ele><time>2025-12-06T07:31:07Z</time></trkpt>
<trkpt lat="32.049187000" lon="34.827343000"><ele>32.6</ele><time>2025-12-06T07:31:12Z</time></trkpt>
<trkpt lat="32.049230000" lon="34.827446000"><ele>32.9</ele><time>2025-12-06T07:31:16Z</time></trkpt>
<trkpt lat="32.049270000" lon="34.827540000"><ele>33.3</ele><time>2025-12-06T07:31:20Z</time></trkpt>
<trkpt lat="32.049315000" lon="34.827620000"><ele>33.6</ele><time>2025-12-06T07:31:25Z</time></trkpt>
<trkpt lat="32.049366000" lon="34.827710000"><ele>34.0</ele><time>2025-12-06T07:31:31Z</time></trkpt>
<trkpt lat="32.049419000" lon="34.827785000"><ele>34.4</ele><time>2025-12-06T07:31:37Z</time></trkpt>
<trkpt lat="32.049480000" lon="34.827866000"><ele>34.6</ele><time>2025-12-06T07:31:43Z</time></trkpt>
<trkpt lat="32.049540000" lon="34.827927000"><ele>34.9</ele><time>2025-12-06T07:31:49Z</time></trkpt>
<trkpt lat="32.049602000" lon="34.827990000"><ele>35.1</ele><time>2025-12-06T07:31:53Z</time></trkpt>
<trkpt lat="32.049667000" lon="34.828050000"><ele>35.2</ele><time>2025-12-06T07:31:56Z</time></trkpt>
<trkpt lat="32.049754000" lon="34.828114000"><ele>35.3</ele><time>2025-12-06T07:32:00Z</time></trkpt>
<trkpt lat="32.049843000" lon="34.828180000"><ele>35.3</ele><time>2025-12-06T07:32:04Z</time></trkpt>
<trkpt lat="32.049915000" lon="34.828224000"><ele>35.3</ele><time>2025-12-06T07:32:07Z</time></trkpt>
<trkpt lat="32.050002000" lon="34.828290000"><ele>35.3</ele><time>2025-12-06T07:32:11Z</time></trkpt>
<trkpt lat="32.050080000" lon="34.828327000"><ele>35.4</ele><time>2025-12-06T07:32:14Z</time></trkpt>
<trkpt lat="32.050160000" lon="34.828360000"><ele>35.4</ele><time>2025-12-06T07:32:17Z</time></trkpt>
<trkpt lat="32.050243000" lon="34.828380000"><ele>35.5</ele><time>2025-12-06T07:32:20Z</time></trkpt>
<trkpt lat="32.050345000" lon="34.828384000"><ele>35.5</ele><time>2025-12-06T07:32:23Z</time></trkpt>
<trkpt lat="32.050415000" lon="34.828330000"><ele>35.6</ele><time>2025-12-06T07:32:25Z</time></trkpt>
<trkpt lat="32.050507000" lon="34.828260000"><ele>35.6</ele><time>2025-12-06T07:32:28Z</time></trkpt>
<trkpt lat="32.050579000" lon="34.828170000"><ele>35.7</ele><time>2025-12-06T07:32:31Z</time></trkpt>
<trkpt lat="32.050644000" lon="34.828094000"><ele>35.8</ele><time>2025-12-06T07:32:34Z</time></trkpt>
<trkpt lat="32.050697000" lon="34.828010000"><ele>36.0</ele><time>2025-12-06T07:32:37Z</time></trkpt>
<trkpt lat="32.050750000" lon="34.827934000"><ele>36.2</ele><time>2025-12-06T07:32:40Z</time></trkpt>
<trkpt lat="32.050797000" lon="34.827850000"><ele>36.3</ele><time>2025-12-06T07:32:43Z</time></trkpt>
<trkpt lat="32.050835000" lon="34.827750000"><ele>36.3</ele><time>2025-12-06T07:32:46Z</time></trkpt>
<trkpt lat="32.050865000" lon="34.827644000"><ele>36.3</ele><time>2025-12-06T07:32:49Z</time></trkpt>
<trkpt lat="32.050907000" lon="34.827550000"><ele>36.2</ele><time>2025-12-06T07:32:52Z</time></trkpt>
<trkpt lat="32.050938000" lon="34.827450000"><ele>36.1</ele><time>2025-12-06T07:32:55Z</time></trkpt>
<trkpt lat="32.050972000" lon="34.827347000"><ele>36.0</ele><time>2025-12-06T07:32:58Z</time></trkpt>
<trkpt lat="32.050995000" lon="34.827248000"><ele>36.0</ele><time>2025-12-06T07:33:01Z</time></trkpt>
<trkpt lat="32.051014000" lon="34.827145000"><ele>36.0</ele><time>2025-12-06T07:33:04Z</time></trkpt>
<trkpt lat="32.051032000" lon="34.827038000"><ele>35.9</ele><time>2025-12-06T07:33:07Z</time></trkpt>
<trkpt lat="32.051040000" lon="34.826930000"><ele>35.8</ele><time>2025-12-06T07:33:10Z</time></trkpt>
<trkpt lat="32.051037000" lon="34.826824000"><ele>35.7</ele><time>2025-12-06T07:33:13Z</time></trkpt>
<trkpt lat="32.051040000" lon="34.826720000"><ele>35.5</ele><time>2025-12-06T07:33:16Z</time></trkpt>
<trkpt lat="32.051029000" lon="34.826622000"><ele>35.3</ele><time>2025-12-06T07:33:19Z</time></trkpt>
<trkpt lat="32.051006000" lon="34.826520000"><ele>35.0</ele><time>2025-12-06T07:33:22Z</time></trkpt>
<trkpt lat="32.050990000" lon="34.826420000"><ele>34.6</ele><time>2025-12-06T07:33:25Z</time></trkpt>
<trkpt lat="32.050972000" lon="34.826324000"><ele>34.2</ele><time>2025-12-06T07:33:28Z</time></trkpt>
<trkpt lat="32.050938000" lon="34.826220000"><ele>33.6</ele><time>2025-12-06T07:33:31Z</time></trkpt>
<trkpt lat="32.050890000" lon="34.826138000"><ele>33.0</ele><time>2025-12-06T07:33:34Z</time></trkpt>
<trkpt lat="32.050846000" lon="34.826046000"><ele>32.3</ele><time>2025-12-06T07:33:37Z</time></trkpt>
<trkpt lat="32.050797000" lon="34.825962000"><ele>31.6</ele><time>2025-12-06T07:33:40Z</time></trkpt>
<trkpt lat="32.050739000" lon="34.825880000"><ele>30.9</ele><time>2025-12-06T07:33:43Z</time></trkpt>
<trkpt lat="32.050674000" lon="34.825806000"><ele>30.2</ele><time>2025-12-06T07:33:46Z</time></trkpt>
<trkpt lat="32.050606000" lon="34.825740000"><ele>29.5</ele><time>2025-12-06T07:33:49Z</time></trkpt>
<trkpt lat="32.050539000" lon="34.825676000"><ele>28.8</ele><time>2025-12-06T07:33:52Z</time></trkpt>
<trkpt lat="32.050476000" lon="34.825607000"><ele>28.2</ele><time>2025-12-06T07:33:55Z</time></trkpt>
<trkpt lat="32.050410000" lon="34.825535000"><ele>27.7</ele><time>2025-12-06T07:33:58Z</time></trkpt>
<trkpt lat="32.050345000" lon="34.825466000"><ele>27.4</ele><time>2025-12-06T07:34:01Z</time></trkpt>
<trkpt lat="32.050278000" lon="34.825405000"><ele>27.2</ele><time>2025-12-06T07:34:04Z</time></trkpt>
<trkpt lat="32.050210000" lon="34.825336000"><ele>27.2</ele><time>2025-12-06T07:34:07Z</time></trkpt>
<trkpt lat="32.050148000" lon="34.825270000"><ele>27.4</ele><time>2025-12-06T07:34:10Z</time></trkpt>
<trkpt lat="32.050086000" lon="34.825195000"><ele>27.6</ele><time>2025-12-06T07:34:13Z</time></trkpt>
<trkpt lat="32.050022000" lon="34.825108000"><ele>28.1</ele><time>2025-12-06T07:34:17Z</time></trkpt>
<trkpt lat="32.049965000" lon="34.825035000"><ele>28.6</ele><time>2025-12-06T07:34:20Z</time></trkpt>
<trkpt lat="32.049892000" lon="34.824944000"><ele>29.3</ele><time>2025-12-06T07:34:24Z</time></trkpt>
<trkpt lat="32.049835000" lon="34.824863000"><ele>29.9</ele><time>2025-12-06T07:34:29Z</time></trkpt>
<trkpt lat="32.049774000" lon="34.824787000"><ele>30.5</ele><time>2025-12-06T07:34:35Z</time></trkpt>
<trkpt lat="32.049709000" lon="34.824703000"><ele>31.1</ele><time>2025-12-06T07:34:40Z</time></trkpt>
<trkpt lat="32.049650000" lon="34.824623000"><ele>31.5</ele><time>2025-12-06T07:34:44Z</time></trkpt>
<trkpt lat="32.049590000" lon="34.824540000"><ele>31.9</ele><time>2025-12-06T07:34:48Z</time></trkpt>
<trkpt lat="32.049529000" lon="34.824460000"><ele>32.1</ele><time>2025-12-06T07:34:52Z</time></trkpt>
<trkpt lat="32.049464000" lon="34.824383000"><ele>32.2</ele><time>2025-12-06T07:34:56Z</time></trkpt>
<trkpt lat="32.049404000" lon="34.824306000"><ele>32.2</ele><time>2025-12-06T07:35:00Z</time></trkpt>
<trkpt lat="32.049328000" lon="34.824230000"><ele>32.1</ele><time>2025-12-06T07:35:04Z</time></trkpt>
<trkpt lat="32.049263000" lon="34.824165000"><ele>32.0</ele><time>2025-12-06T07:35:08Z</time></trkpt>
<trkpt lat="32.049187000" lon="34.824097000"><ele>32.0</ele><time>2025-12-06T07:35:12Z</time></trkpt>
<trkpt lat="32.049110000" lon="34.824030000"><ele>32.1</ele><time>2025-12-06T07:35:16Z</time></trkpt>
<trkpt lat="32.049059000" lon="34.823944000"><ele>32.4</ele><time>2025-12-06T07:35:20Z</time></trkpt>
<trkpt lat="32.049020000" lon="34.823860000"><ele>32.7</ele><time>2025-12-06T07:35:24Z</time></trkpt>
<trkpt lat="32.048972000" lon="34.823780000"><ele>33.3</ele><time>2025-12-06T07:35:28Z</time></trkpt>
<trkpt lat="32.048930000" lon="34.823685000"><ele>34.0</ele><time>2025-12-06T07:35:32Z</time></trkpt>
<trkpt lat="32.048896000" lon="34.823586000"><ele>34.9</ele><time>2025-12-06T07:35:37Z</time></trkpt>
<trkpt lat="32.048923000" lon="34.823475000"><ele>35.7</ele><time>2025-12-06T07:35:42Z</time></trkpt>
<trkpt lat="32.048930000" lon="34.823364000"><ele>36.5</ele><time>2025-12-06T07:35:46Z</time></trkpt>
<trkpt lat="32.048954000" lon="34.823246000"><ele>37.3</ele><time>2025-12-06T07:35:51Z</time></trkpt>
<trkpt lat="32.048965000" lon="34.823143000"><ele>37.8</ele><time>2025-12-06T07:35:55Z</time></trkpt>
<trkpt lat="32.048990000" lon="34.823036000"><ele>38.3</ele><time>2025-12-06T07:36:00Z</time></trkpt>
<trkpt lat="32.049007000" lon="34.822920000"><ele>38.6</ele><time>2025-12-06T07:36:05Z</time></trkpt>
<trkpt lat="32.049020000" lon="34.822815000"><ele>38.7</ele><time>2025-12-06T07:36:09Z</time></trkpt>
<trkpt lat="32.049025000" lon="34.822697000"><ele>38.7</ele><time>2025-12-06T07:36:13Z</time></trkpt>
<trkpt lat="32.049039000" lon="34.822582000"><ele>38.7</ele><time>2025-12-06T07:36:17Z</time></trkpt>
<trkpt lat="32.049039000" lon="34.822487000"><ele>38.5</ele><time>2025-12-06T07:36:22Z</time></trkpt>
<trkpt lat="32.049034000" lon="34.822370000"><ele>38.3</ele><time>2025-12-06T07:36:28Z</time></trkpt>
<trkpt lat="32.049038000" lon="34.822266000"><ele>38.1</ele><time>2025-12-06T07:36:33Z</time></trkpt>
<trkpt lat="32.049034000" lon="34.822147000"><ele>37.9</ele><time>2025-12-06T07:36:39Z</time></trkpt>
<trkpt lat="32.049030000" lon="34.822044000"><ele>37.7</ele><time>2025-12-06T07:36:43Z</time></trkpt>
<trkpt lat="32.049010000" lon="34.821953000"><ele>37.6</ele><time>2025-12-06T07:36:47Z</time></trkpt>
<trkpt lat="32.048992000" lon="34.821846000"><ele>37.5</ele><time>2025-12-06T07:36:51Z</time></trkpt>
<trkpt lat="32.048980000" lon="34.821747000"><ele>37.3</ele><time>2025-12-06T07:36:55Z</time></trkpt>
<trkpt lat="32.048949000" lon="34.821655000"><ele>37.1</ele><time>2025-12-06T07:36:58Z</time></trkpt>
<trkpt lat="32.048896000" lon="34.821552000"><ele>36.8</ele><time>2025-12-06T07:37:02Z</time></trkpt>
<trkpt lat="32.048813000" lon="34.821472000"><ele>36.5</ele><time>2025-12-06T07:37:06Z</time></trkpt>
<trkpt lat="32.048760000" lon="34.821390000"><ele>36.1</ele><time>2025-12-06T07:37:10Z</time></trkpt>
<trkpt lat="32.048706000" lon="34.821304000"><ele>35.7</ele><time>2025-12-06T07:37:14Z</time></trkpt>
<trkpt lat="32.048640000" lon="34.821220000"><ele>35.4</ele><time>2025-12-06T07:37:17Z</time></trkpt>
<trkpt lat="32.048584000" lon="34.821133000"><ele>35.0</ele><time>2025-12-06T07:37:20Z</time></trkpt>
<trkpt lat="32.048530000" lon="34.821053000"><ele>34.8</ele><time>2025-12-06T07:37:23Z</time></trkpt>
<trkpt lat="32.048477000" lon="34.820965000"><ele>34.6</ele><time>2025-12-06T07:37:26Z</time></trkpt>
<trkpt lat="32.048430000" lon="34.820885000"><ele>34.6</ele><time>2025-12-06T07:37:29Z</time></trkpt>
<trkpt lat="32.048392000" lon="34.820780000"><ele>34.7</ele><time>2025-12-06T07:37:33Z</time></trkpt>
<trkpt lat="32.048360000" lon="34.820686000"><ele>35.0</ele><time>2025-12-06T07:37:36Z</time></trkpt>
<trkpt lat="32.048340000" lon="34.820568000"><ele>35.4</ele><time>2025-12-06T07:37:40Z</time></trkpt>
<trkpt lat="32.048313000" lon="34.820470000"><ele>35.7</ele><time>2025-12-06T07:37:43Z</time></trkpt>
<trkpt lat="32.048264000" lon="34.820390000"><ele>36.2</ele><time>2025-12-06T07:37:46Z</time></trkpt>
<trkpt lat="32.048195000" lon="34.820324000"><ele>36.6</ele><time>2025-12-06T07:37:49Z</time></trkpt>
<trkpt lat="32.048110000" lon="34.820267000"><ele>37.1</ele><time>2025-12-06T07:37:52Z</time></trkpt>
<trkpt lat="32.048020000" lon="34.820232000"><ele>37.5</ele><time>2025-12-06T07:37:55Z</time></trkpt>
<trkpt lat="32.047950000" lon="34.820187000"><ele>37.8</ele><time>2025-12-06T07:37:58Z</time></trkpt>
<trkpt lat="32.047880000" lon="34.820107000"><ele>38.1</ele><time>2025-12-06T07:38:02Z</time></trkpt>
<trkpt lat="32.047849000" lon="34.820015000"><ele>38.2</ele><time>2025-12-06T07:38:06Z</time></trkpt>
<trkpt lat="32.047820000" lon="34.819897000"><ele>38.2</ele><time>2025-12-06T07:38:10Z</time></trkpt>
<trkpt lat="32.047801000" lon="34.819770000"><ele>38.1</ele><time>2025-12-06T07:38:14Z</time></trkpt>
<trkpt lat="32.047783000" lon="34.819653000"><ele>38.0</ele><time>2025-12-06T07:38:18Z</time></trkpt>
<trkpt lat="32.047780000" lon="34.819557000"><ele>37.9</ele><time>2025-12-06T07:38:21Z</time></trkpt>
<trkpt lat="32.047775000" lon="34.819430000"><ele>37.7</ele><time>2025-12-06T07:38:25Z</time></trkpt>
<trkpt lat="32.047780000" lon="34.819332000"><ele>37.5</ele><time>2025-12-06T07:38:28Z</time></trkpt>
<trkpt lat="32.047775000" lon="34.819210000"><ele>37.4</ele><time>2025-12-06T07:38:32Z</time></trkpt>
<trkpt lat="32.047783000" lon="34.819107000"><ele>37.2</ele><time>2025-12-06T07:38:35Z</time></trkpt>
<trkpt lat="32.047783000" lon="34.819004000"><ele>37.1</ele><time>2025-12-06T07:38:38Z</time></trkpt>
<trkpt lat="32.047756000" lon="34.818900000"><ele>37.1</ele><time>2025-12-06T07:38:41Z</time></trkpt>
<trkpt lat="32.047710000" lon="34.818798000"><ele>37.2</ele><time>2025-12-06T07:38:44Z</time></trkpt>
<trkpt lat="32.047672000" lon="34.818687000"><ele>37.3</ele><time>2025-12-06T07:38:47Z</time></trkpt>
<trkpt lat="32.047640000" lon="34.818590000"><ele>37.4</ele><time>2025-12-06T07:38:50Z</time></trkpt>
<trkpt lat="32.047596000" lon="34.818478000"><ele>37.5</ele><time>2025-12-06T07:38:54Z</time></trkpt>
<trkpt lat="32.047550000" lon="34.818382000"><ele>37.5</ele><time>2025-12-06T07:38:57Z</time></trkpt>
<trkpt lat="32.047493000" lon="34.818300000"><ele>37.5</ele><time>2025-12-06T07:39:00Z</time></trkpt>
<trkpt lat="32.047443000" lon="34.818220000"><ele>37.4</ele><time>2025-12-06T07:39:03Z</time></trkpt>
<trkpt lat="32.047375000" lon="34.818153000"><ele>37.3</ele><time>2025-12-06T07:39:06Z</time></trkpt>
<trkpt lat="32.047302000" lon="34.818210000"><ele>37.2</ele><time>2025-12-06T07:39:09Z</time></trkpt>
<trkpt lat="32.047295000" lon="34.818325000"><ele>37.1</ele><time>2025-12-06T07:39:13Z</time></trkpt>
<trkpt lat="32.047280000" lon="34.818420000"><ele>36.9</ele><time>2025-12-06T07:39:16Z</time></trkpt>
<trkpt lat="32.047252000" lon="34.818546000"><ele>36.7</ele><time>2025-12-06T07:39:20Z</time></trkpt>
<trkpt lat="32.047240000" lon="34.818653000"><ele>36.5</ele><time>2025-12-06T07:39:23Z</time></trkpt>
<trkpt lat="32.047240000" lon="34.818752000"><ele>36.4</ele><time>2025-12-06T07:39:28Z</time></trkpt>
<trkpt lat="32.047250000" lon="34.818850000"><ele>36.1</ele><time>2025-12-06T07:39:34Z</time></trkpt>
<trkpt lat="32.047255000" lon="34.818950000"><ele>35.8</ele><time>2025-12-06T07:39:40Z</time></trkpt>
<trkpt lat="32.047244000" lon="34.819054000"><ele>35.5</ele><time>2025-12-06T07:39:45Z</time></trkpt>
<trkpt lat="32.047240000" lon="34.819168000"><ele>35.4</ele><time>2025-12-06T07:39:49Z</time></trkpt>
<trkpt lat="32.047230000" lon="34.819270000"><ele>35.1</ele><time>2025-12-06T07:39:53Z</time></trkpt>
<trkpt lat="32.047207000" lon="34.819380000"><ele>34.8</ele><time>2025-12-06T07:39:57Z</time></trkpt>
<trkpt lat="32.047190000" lon="34.819485000"><ele>34.6</ele><time>2025-12-06T07:40:01Z</time></trkpt>
<trkpt lat="32.047179000" lon="34.819590000"><ele>34.5</ele><time>2025-12-06T07:40:05Z</time></trkpt>
<trkpt lat="32.047157000" lon="34.819710000"><ele>34.5</ele><time>2025-12-06T07:40:09Z</time></trkpt>
<trkpt lat="32.047134000" lon="34.819810000"><ele>34.5</ele><time>2025-12-06T07:40:13Z</time></trkpt>
<trkpt lat="32.047092000" lon="34.819912000"><ele>34.5</ele><time>2025-12-06T07:40:17Z</time></trkpt>
<trkpt lat="32.047061000" lon="34.820007000"><ele>34.5</ele><time>2025-12-06T07:40:21Z</time></trkpt>
<trkpt lat="32.047030000" lon="34.820114000"><ele>34.7</ele><time>2025-12-06T07:40:25Z</time></trkpt>
<trkpt lat="32.047010000" lon="34.820220000"><ele>34.9</ele><time>2025-12-06T07:40:29Z</time></trkpt>
<trkpt lat="32.046985000" lon="34.820316000"><ele>35.1</ele><time>2025-12-06T07:40:33Z</time></trkpt>
<trkpt lat="32.046970000" lon="34.820415000"><ele>35.3</ele><time>2025-12-06T07:40:36Z</time></trkpt>
<trkpt lat="32.046962000" lon="34.820510000"><ele>35.4</ele><time>2025-12-06T07:40:39Z</time></trkpt>
<trkpt lat="32.046950000" lon="34.820606000"><ele>35.3</ele><time>2025-12-06T07:40:43Z</time></trkpt>
<trkpt lat="32.046932000" lon="34.820720000"><ele>35.0</ele><time>2025-12-06T07:40:46Z</time></trkpt>
<trkpt lat="32.046917000" lon="34.820816000"><ele>34.6</ele><time>2025-12-06T07:40:49Z</time></trkpt>
<trkpt lat="32.046900000" lon="34.820940000"><ele>34.0</ele><time>2025-12-06T07:40:53Z</time></trkpt>
<trkpt lat="32.046889000" lon="34.821050000"><ele>33.3</ele><time>2025-12-06T07:40:57Z</time></trkpt>
<trkpt lat="32.046883000" lon="34.821156000"><ele>32.5</ele><time>2025-12-06T07:41:01Z</time></trkpt>
<trkpt lat="32.046889000" lon="34.821266000"><ele>31.6</ele><time>2025-12-06T07:41:05Z</time></trkpt>
<trkpt lat="32.046880000" lon="34.821373000"><ele>30.9</ele><time>2025-12-06T07:41:09Z</time></trkpt>
<trkpt lat="32.046875000" lon="34.821490000"><ele>30.2</ele><time>2025-12-06T07:41:14Z</time></trkpt>
<trkpt lat="32.046875000" lon="34.821594000"><ele>29.5</ele><time>2025-12-06T07:41:18Z</time></trkpt>
<trkpt lat="32.046900000" lon="34.821693000"><ele>29.1</ele><time>2025-12-06T07:41:24Z</time></trkpt>
<trkpt lat="32.046954000" lon="34.821770000"><ele>28.7</ele><time>2025-12-06T07:41:30Z</time></trkpt>
<trkpt lat="32.047016000" lon="34.821835000"><ele>28.5</ele><time>2025-12-06T07:41:36Z</time></trkpt>
<trkpt lat="32.047080000" lon="34.821900000"><ele>28.4</ele><time>2025-12-06T07:41:40Z</time></trkpt>
<trkpt lat="32.047150000" lon="34.821980000"><ele>28.5</ele><time>2025-12-06T07:41:44Z</time></trkpt>
<trkpt lat="32.047226000" lon="34.822063000"><ele>28.9</ele><time>2025-12-06T07:41:48Z</time></trkpt>
<trkpt lat="32.047300000" lon="34.822140000"><ele>29.5</ele><time>2025-12-06T07:41:52Z</time></trkpt>
<trkpt lat="32.047367000" lon="34.822212000"><ele>30.1</ele><time>2025-12-06T07:41:56Z</time></trkpt>
<trkpt lat="32.047432000" lon="34.822300000"><ele>30.6</ele><time>2025-12-06T07:42:00Z</time></trkpt>
<trkpt lat="32.047497000" lon="34.822380000"><ele>31.2</ele><time>2025-12-06T07:42:04Z</time></trkpt>
<trkpt lat="32.047558000" lon="34.822460000"><ele>31.6</ele><time>2025-12-06T07:42:08Z</time></trkpt>
<trkpt lat="32.047620000" lon="34.822540000"><ele>32.0</ele><time>2025-12-06T07:42:12Z</time></trkpt>
<trkpt lat="32.047676000" lon="34.822613000"><ele>32.4</ele><time>2025-12-06T07:42:15Z</time></trkpt>
<trkpt lat="32.047733000" lon="34.822700000"><ele>32.7</ele><time>2025-12-06T07:42:18Z</time></trkpt>
<trkpt lat="32.047801000" lon="34.822796000"><ele>33.0</ele><time>2025-12-06T07:42:22Z</time></trkpt>
<trkpt lat="32.047863000" lon="34.822872000"><ele>33.2</ele><time>2025-12-06T07:42:25Z</time></trkpt>
<trkpt lat="32.047916000" lon="34.822950000"><ele>33.4</ele><time>2025-12-06T07:42:28Z</time></trkpt>
<trkpt lat="32.047984000" lon="34.823048000"><ele>33.5</ele><time>2025-12-06T07:42:32Z</time></trkpt>
<trkpt lat="32.048050000" lon="34.823140000"><ele>33.5</ele><time>2025-12-06T07:42:36Z</time></trkpt>
<trkpt lat="32.048119000" lon="34.823235000"><ele>33.4</ele><time>2025-12-06T07:42:40Z</time></trkpt>
<trkpt lat="32.048183000" lon="34.823320000"><ele>33.3</ele><time>2025-12-06T07:42:44Z</time></trkpt>
<trkpt lat="32.048256000" lon="34.823402000"><ele>33.3</ele><time>2025-12-06T07:42:48Z</time></trkpt>
<trkpt lat="32.048319000" lon="34.823480000"><ele>33.3</ele><time>2025-12-06T07:42:52Z</time></trkpt>
<trkpt lat="32.048397000" lon="34.823563000"><ele>33.3</ele><time>2025-12-06T07:42:56Z</time></trkpt>
<trkpt lat="32.048470000" lon="34.823643000"><ele>33.4</ele><time>2025-12-06T07:43:00Z</time></trkpt>
<trkpt lat="32.048565000" lon="34.823690000"><ele>33.5</ele><time>2025-12-06T07:43:04Z</time></trkpt>
<trkpt lat="32.048650000" lon="34.823696000"><ele>33.9</ele><time>2025-12-06T07:43:07Z</time></trkpt>
<trkpt lat="32.048733000" lon="34.823704000"><ele>34.3</ele><time>2025-12-06T07:43:12Z</time></trkpt>
<trkpt lat="32.048820000" lon="34.823677000"><ele>34.7</ele><time>2025-12-06T07:43:17Z</time></trkpt>
<trkpt lat="32.048890000" lon="34.823620000"><ele>35.4</ele><time>2025-12-06T07:43:21Z</time></trkpt>
<trkpt lat="32.048904000" lon="34.823524000"><ele>36.1</ele><time>2025-12-06T07:43:24Z</time></trkpt>
<trkpt lat="32.048912000" lon="34.823418000"><ele>36.7</ele><time>2025-12-06T07:43:27Z</time></trkpt>
<trkpt lat="32.048930000" lon="34.823300000"><ele>37.4</ele><time>2025-12-06T07:43:31Z</time></trkpt>
<trkpt lat="32.048943000" lon="34.823196000"><ele>37.9</ele><time>2025-12-06T07:43:34Z</time></trkpt>
<trkpt lat="32.048965000" lon="34.823082000"><ele>38.4</ele><time>2025-12-06T07:43:38Z</time></trkpt>
<trkpt lat="32.048980000" lon="34.822968000"><ele>38.7</ele><time>2025-12-06T07:43:42Z</time></trkpt>
<trkpt lat="32.049003000" lon="34.822845000"><ele>38.9</ele><time>2025-12-06T07:43:46Z</time></trkpt>
<trkpt lat="32.049014000" lon="34.822730000"><ele>38.9</ele><time>2025-12-06T07:43:50Z</time></trkpt>
<trkpt lat="32.049023000" lon="34.822624000"><ele>38.8</ele><time>2025-12-06T07:43:53Z</time></trkpt>
<trkpt lat="32.049034000" lon="34.822520000"><ele>38.7</ele><time>2025-12-06T07:43:56Z</time></trkpt>
<trkpt lat="32.049045000" lon="34.822426000"><ele>38.5</ele><time>2025-12-06T07:43:59Z</time></trkpt>
<trkpt lat="32.049059000" lon="34.822300000"><ele>38.2</ele><time>2025-12-06T07:44:03Z</time></trkpt>
<trkpt lat="32.049059000" lon="34.822200000"><ele>38.0</ele><time>2025-12-06T07:44:06Z</time></trkpt>
<trkpt lat="32.049050000" lon="34.822105000"><ele>37.8</ele><time>2025-12-06T07:44:09Z</time></trkpt>
<trkpt lat="32.049025000" lon="34.822010000"><ele>37.6</ele><time>2025-12-06T07:44:12Z</time></trkpt>
<trkpt lat="32.049003000" lon="34.821920000"><ele>37.5</ele><time>2025-12-06T07:44:15Z</time></trkpt>
<trkpt lat="32.048980000" lon="34.821808000"><ele>37.4</ele><time>2025-12-06T07:44:19Z</time></trkpt>
<trkpt lat="32.048958000" lon="34.821686000"><ele>37.2</ele><time>2025-12-06T07:44:23Z</time></trkpt>
<trkpt lat="32.048910000" lon="34.821594000"><ele>37.0</ele><time>2025-12-06T07:44:26Z</time></trkpt>
<trkpt lat="32.048850000" lon="34.821510000"><ele>36.7</ele><time>2025-12-06T07:44:29Z</time></trkpt>
<trkpt lat="32.048800000" lon="34.821434000"><ele>36.4</ele><time>2025-12-06T07:44:32Z</time></trkpt>
<trkpt lat="32.048750000" lon="34.821346000"><ele>36.0</ele><time>2025-12-06T07:44:36Z</time></trkpt>
<trkpt lat="32.048699000" lon="34.821274000"><ele>35.6</ele><time>2025-12-06T07:44:40Z</time></trkpt>
<trkpt lat="32.048637000" lon="34.821190000"><ele>35.3</ele><time>2025-12-06T07:44:44Z</time></trkpt>
<trkpt lat="32.048575000" lon="34.821106000"><ele>35.0</ele><time>2025-12-06T07:44:48Z</time></trkpt>
<trkpt lat="32.048520000" lon="34.821022000"><ele>34.8</ele><time>2025-12-06T07:44:52Z</time></trkpt>
<trkpt lat="32.048470000" lon="34.820934000"><ele>34.7</ele><time>2025-12-06T07:44:56Z</time></trkpt>
<trkpt lat="32.048409000" lon="34.820835000"><ele>34.8</ele><time>2025-12-06T07:45:01Z</time></trkpt>
<trkpt lat="32.048374000" lon="34.820740000"><ele>35.0</ele><time>2025-12-06T07:45:05Z</time></trkpt>
<trkpt lat="32.048350000" lon="34.820644000"><ele>35.3</ele><time>2025-12-06T07:45:09Z</time></trkpt>
<trkpt lat="32.048319000" lon="34.820526000"><ele>35.6</ele><time>2025-12-06T07:45:14Z</time></trkpt>
<trkpt lat="32.048274000" lon="34.820420000"><ele>36.1</ele><time>2025-12-06T07:45:18Z</time></trkpt>
<trkpt lat="32.048214000" lon="34.820328000"><ele>36.5</ele><time>2025-12-06T07:45:22Z</time></trkpt>
<trkpt lat="32.048133000" lon="34.820270000"><ele>37.0</ele><time>2025-12-06T07:45:25Z</time></trkpt>
<trkpt lat="32.048054000" lon="34.820220000"><ele>37.5</ele><time>2025-12-06T07:45:28Z</time></trkpt>
<trkpt lat="32.047966000" lon="34.820170000"><ele>37.8</ele><time>2025-12-06T07:45:32Z</time></trkpt>
<trkpt lat="32.047897000" lon="34.820103000"><ele>38.1</ele><time>2025-12-06T07:45:37Z</time></trkpt>
<trkpt lat="32.047860000" lon="34.820004000"><ele>38.2</ele><time>2025-12-06T07:45:43Z</time></trkpt>
<trkpt lat="32.047829000" lon="34.819890000"><ele>38.2</ele><time>2025-12-06T07:45:48Z</time></trkpt>
<trkpt lat="32.047801000" lon="34.819798000"><ele>38.2</ele><time>2025-12-06T07:45:52Z</time></trkpt>
<trkpt lat="32.047790000" lon="34.819702000"><ele>38.1</ele><time>2025-12-06T07:45:56Z</time></trkpt>
<trkpt lat="32.047783000" lon="34.819595000"><ele>38.0</ele><time>2025-12-06T07:46:00Z</time></trkpt>
<trkpt lat="32.047775000" lon="34.819496000"><ele>37.8</ele><time>2025-12-06T07:46:04Z</time></trkpt>
<trkpt lat="32.047775000" lon="34.819370000"><ele>37.6</ele><time>2025-12-06T07:46:08Z</time></trkpt>
<trkpt lat="32.047787000" lon="34.819260000"><ele>37.5</ele><time>2025-12-06T07:46:12Z</time></trkpt>
<trkpt lat="32.047783000" lon="34.819140000"><ele>37.3</ele><time>2025-12-06T07:46:17Z</time></trkpt>
<trkpt lat="32.047775000" lon="34.819042000"><ele>37.1</ele><time>2025-12-06T07:46:21Z</time></trkpt>
<trkpt lat="32.047767000" lon="34.818928000"><ele>37.1</ele><time>2025-12-06T07:46:25Z</time></trkpt>
<trkpt lat="32.047730000" lon="34.818832000"><ele>37.2</ele><time>2025-12-06T07:46:29Z</time></trkpt>
<trkpt lat="32.047690000" lon="34.818718000"><ele>37.3</ele><time>2025-12-06T07:46:33Z</time></trkpt>
<trkpt lat="32.047657000" lon="34.818610000"><ele>37.4</ele><time>2025-12-06T07:46:37Z</time></trkpt>
<trkpt lat="32.047626000" lon="34.818512000"><ele>37.5</ele><time>2025-12-06T07:46:41Z</time></trkpt>
<trkpt lat="32.047573000" lon="34.818413000"><ele>37.5</ele><time>2025-12-06T07:46:45Z</time></trkpt>
<trkpt lat="32.047523000" lon="34.818336000"><ele>37.5</ele><time>2025-12-06T07:46:49Z</time></trkpt>
<trkpt lat="32.047466000" lon="34.818237000"><ele>37.5</ele><time>2025-12-06T07:46:53Z</time></trkpt>
<trkpt lat="32.047410000" lon="34.818146000"><ele>37.3</ele><time>2025-12-06T07:46:57Z</time></trkpt>
<trkpt lat="32.047362000" lon="34.818054000"><ele>36.9</ele><time>2025-12-06T07:47:03Z</time></trkpt>
<trkpt lat="32.047359000" lon="34.817950000"><ele>36.4</ele><time>2025-12-06T07:47:09Z</time></trkpt>
<trkpt lat="32.047362000" lon="34.817852000"><ele>35.6</ele><time>2025-12-06T07:47:13Z</time></trkpt>
<trkpt lat="32.047379000" lon="34.817740000"><ele>34.8</ele><time>2025-12-06T07:47:18Z</time></trkpt>
<trkpt lat="32.047400000" lon="34.817650000"><ele>33.9</ele><time>2025-12-06T07:47:22Z</time></trkpt>
<trkpt lat="32.047420000" lon="34.817540000"><ele>33.0</ele><time>2025-12-06T07:47:26Z</time></trkpt>
<trkpt lat="32.047424000" lon="34.817432000"><ele>32.1</ele><time>2025-12-06T07:47:30Z</time></trkpt>
<trkpt lat="32.047440000" lon="34.817310000"><ele>31.3</ele><time>2025-12-06T07:47:35Z</time></trkpt>
<trkpt lat="32.047449000" lon="34.817200000"><ele>30.5</ele><time>2025-12-06T07:47:39Z</time></trkpt>
<trkpt lat="32.047485000" lon="34.817100000"><ele>29.7</ele><time>2025-12-06T07:47:42Z</time></trkpt>
<trkpt lat="32.047504000" lon="34.817000000"><ele>29.0</ele><time>2025-12-06T07:47:45Z</time></trkpt>
<trkpt lat="32.047523000" lon="34.816902000"><ele>28.5</ele><time>2025-12-06T07:47:48Z</time></trkpt>
<trkpt lat="32.047553000" lon="34.816795000"><ele>28.1</ele><time>2025-12-06T07:47:53Z</time></trkpt>
<trkpt lat="32.047629000" lon="34.816727000"><ele>27.8</ele><time>2025-12-06T07:48:02Z</time></trkpt>
<trkpt lat="32.047720000" lon="34.816696000"><ele>27.6</ele><time>2025-12-06T07:48:07Z</time></trkpt>
<trkpt lat="32.047817000" lon="34.816654000"><ele>27.5</ele><time>2025-12-06T07:48:12Z</time></trkpt>
<trkpt lat="32.047886000" lon="34.816600000"><ele>27.5</ele><time>2025-12-06T07:48:17Z</time></trkpt>
<trkpt lat="32.047966000" lon="34.816540000"><ele>27.4</ele><time>2025-12-06T07:48:21Z</time></trkpt>
<trkpt lat="32.048029000" lon="34.816460000"><ele>27.2</ele><time>2025-12-06T07:48:25Z</time></trkpt>
<trkpt lat="32.048060000" lon="34.816357000"><ele>27.1</ele><time>2025-12-06T07:48:29Z</time></trkpt>
<trkpt lat="32.048138000" lon="34.816322000"><ele>27.0</ele><time>2025-12-06T07:48:36Z</time></trkpt>
<trkpt lat="32.048225000" lon="34.816296000"><ele>26.9</ele><time>2025-12-06T07:48:43Z</time></trkpt>
<trkpt lat="32.048305000" lon="34.816270000"><ele>26.8</ele><time>2025-12-06T07:48:49Z</time></trkpt>
<trkpt lat="32.048397000" lon="34.816273000"><ele>26.7</ele><time>2025-12-06T07:48:56Z</time></trkpt>
<trkpt lat="32.048485000" lon="34.816280000"><ele>26.7</ele><time>2025-12-06T07:49:02Z</time></trkpt>
<trkpt lat="32.048575000" lon="34.816273000"><ele>26.7</ele><time>2025-12-06T07:49:08Z</time></trkpt>
<trkpt lat="32.048668000" lon="34.816227000"><ele>26.8</ele><time>2025-12-06T07:49:12Z</time></trkpt>
<trkpt lat="32.048769000" lon="34.816204000"><ele>27.0</ele><time>2025-12-06T07:49:16Z</time></trkpt>
<trkpt lat="32.048865000" lon="34.816196000"><ele>27.3</ele><time>2025-12-06T07:49:20Z</time></trkpt>
<trkpt lat="32.048958000" lon="34.816180000"><ele>27.6</ele><time>2025-12-06T07:49:24Z</time></trkpt>
<trkpt lat="32.049039000" lon="34.816174000"><ele>28.1</ele><time>2025-12-06T07:49:27Z</time></trkpt>
<trkpt lat="32.049129000" lon="34.816135000"><ele>28.5</ele><time>2025-12-06T07:49:31Z</time></trkpt>
<trkpt lat="32.049202000" lon="34.816074000"><ele>29.2</ele><time>2025-12-06T07:49:35Z</time></trkpt>
<trkpt lat="32.049286000" lon="34.816032000"><ele>29.8</ele><time>2025-12-06T07:49:40Z</time></trkpt>
<trkpt lat="32.049366000" lon="34.815998000"><ele>30.5</ele><time>2025-12-06T07:49:44Z</time></trkpt>
<trkpt lat="32.049400000" lon="34.815890000"><ele>30.9</ele><time>2025-12-06T07:49:47Z</time></trkpt>
<trkpt lat="32.049408000" lon="34.815792000"><ele>31.4</ele><time>2025-12-06T07:49:51Z</time></trkpt>
<trkpt lat="32.049450000" lon="34.815693000"><ele>31.6</ele><time>2025-12-06T07:49:56Z</time></trkpt>
<trkpt lat="32.049538000" lon="34.815647000"><ele>31.8</ele><time>2025-12-06T07:50:02Z</time></trkpt>
<trkpt lat="32.049610000" lon="34.815590000"><ele>31.9</ele><time>2025-12-06T07:50:08Z</time></trkpt>
<trkpt lat="32.049686000" lon="34.815530000"><ele>32.0</ele><time>2025-12-06T07:50:15Z</time></trkpt>
<trkpt lat="32.049725000" lon="34.815434000"><ele>32.1</ele><time>2025-12-06T07:50:19Z</time></trkpt>
<trkpt lat="32.049747000" lon="34.815327000"><ele>32.3</ele><time>2025-12-06T07:50:23Z</time></trkpt>
<trkpt lat="32.049767000" lon="34.815228000"><ele>32.4</ele><time>2025-12-06T07:50:27Z</time></trkpt>
<trkpt lat="32.049805000" lon="34.815140000"><ele>32.5</ele><time>2025-12-06T07:50:31Z</time></trkpt>
<trkpt lat="32.049885000" lon="34.815080000"><ele>32.7</ele><time>2025-12-06T07:50:37Z</time></trkpt>
<trkpt lat="32.049953000" lon="34.814995000"><ele>33.0</ele><time>2025-12-06T07:50:41Z</time></trkpt>
<trkpt lat="32.049990000" lon="34.814888000"><ele>33.3</ele><time>2025-12-06T07:50:46Z</time></trkpt>
<trkpt lat="32.049960000" lon="34.814790000"><ele>33.6</ele><time>2025-12-06T07:50:50Z</time></trkpt>
<trkpt lat="32.049957000" lon="34.814680000"><ele>33.9</ele><time>2025-12-06T07:50:54Z</time></trkpt>
<trkpt lat="32.049946000" lon="34.814583000"><ele>34.1</ele><time>2025-12-06T07:50:58Z</time></trkpt>
<trkpt lat="32.049950000" lon="34.814487000"><ele>34.2</ele><time>2025-12-06T07:51:02Z</time></trkpt>
<trkpt lat="32.049953000" lon="34.814373000"><ele>34.1</ele><time>2025-12-06T07:51:07Z</time></trkpt>
<trkpt lat="32.049960000" lon="34.814274000"><ele>33.9</ele><time>2025-12-06T07:51:11Z</time></trkpt>
<trkpt lat="32.049984000" lon="34.814180000"><ele>33.7</ele><time>2025-12-06T07:51:16Z</time></trkpt>
<trkpt lat="32.050040000" lon="34.814083000"><ele>33.5</ele><time>2025-12-06T07:51:21Z</time></trkpt>
<trkpt lat="32.050125000" lon="34.814064000"><ele>33.2</ele><time>2025-12-06T07:51:25Z</time></trkpt>
<trkpt lat="32.050217000" lon="34.814053000"><ele>33.0</ele><time>2025-12-06T07:51:29Z</time></trkpt>
<trkpt lat="32.050300000" lon="34.814050000"><ele>32.9</ele><time>2025-12-06T07:51:33Z</time></trkpt>
<trkpt lat="32.050385000" lon="34.814037000"><ele>32.9</ele><time>2025-12-06T07:51:37Z</time></trkpt>
<trkpt lat="32.050472000" lon="34.814034000"><ele>33.1</ele><time>2025-12-06T07:51:42Z</time></trkpt>
<trkpt lat="32.050559000" lon="34.814026000"><ele>33.5</ele><time>2025-12-06T07:51:46Z</time></trkpt>
<trkpt lat="32.050649000" lon="34.814020000"><ele>33.5</ele><time>2025-12-06T07:51:50Z</time></trkpt>
<trkpt lat="32.050735000" lon="34.814000000"><ele>33.7</ele><time>2025-12-06T07:51:53Z</time></trkpt>
<trkpt lat="32.050827000" lon="34.813965000"><ele>33.9</ele><time>2025-12-06T07:51:57Z</time></trkpt>
<trkpt lat="32.050915000" lon="34.813930000"><ele>34.1</ele><time>2025-12-06T07:52:01Z</time></trkpt>
<trkpt lat="32.050980000" lon="34.813910000"><ele>34.5</ele><time>2025-12-06T07:52:05Z</time></trkpt>
</trkseg>
</trk>
</gpx>
